ONEWEB-0162             
1 48056U 21025Q   26167.13956147 -.00000349  00000+0 -99127-3 0  9999
2 48056  87.8956 320.4319 0001978  94.0042 266.1313 13.13469416253408
ONEWEB-0155             
1 48057U 21025R   26167.14646600 -.00000371  00000+0 -10508-2 0  9991
2 48057  87.8957 320.4268 0001820 102.0663 258.0670 13.13469574253544
ONEWEB-0149             
1 48058U 21025S   26167.16848296  .00000105  00000+0  25216-3 0  9995
2 48058  87.8960 320.4261 0002014  93.6492 266.4867 13.13470523253359
ONEWEB-0148             
1 48059U 21025T   26167.13123419 -.00000197  00000+0 -57456-3 0  9990
2 48059  87.8953 320.4403 0002422  93.1511 266.9896 13.13469603253477
ONEWEB-0160             
1 48060U 21025U   26167.14815525 -.00000303  00000+0 -86523-3 0  9995
2 48060  87.8952 320.4329 0001435  74.7059 285.4229 13.13471065253426
ONEWEB-0163             
1 48061U 21025V   26167.13291815 -.00000196  00000+0 -57238-3 0  9996
2 48061  87.8960 320.4303 0001974 104.0774 256.0575 13.13470374253540
ONEWEB-0159             
1 48062U 21025W   26167.12445911  .00000030  00000+0  48278-4 0  9994
2 48062  87.8963 320.4257 0001918 103.9745 256.1597 13.13470488253468
ONEWEB-0164             
1 48063U 21025X   26167.18201799  .00000459  00000+0  12226-2 0  9992
2 48063  87.8963 320.4207 0001734  96.0764 264.0563 13.13470993253454
ONEWEB-0167             
1 48064U 21025Y   26167.13375985 -.00000187  00000+0 -54817-3 0  9990
2 48064  87.8952 320.4400 0001676 118.0599 242.0700 13.13468293253431
ONEWEB-0166             
1 48065U 21025Z   26166.92807851 -.00000358  00000+0 -10153-2 0  9993
2 48065  87.8962 320.4524 0002022  96.4245 263.7114 13.13470121253480
ONEWEB-0151             
1 48066U 21025AA  26167.15831087 -.00000153  00000+0 -45307-3 0  9991
2 48066  87.8953 320.4234 0001743 100.2855 259.8471 13.13470924253459
ONEWEB-0170             
1 48067U 21025AB  26167.16678084  .00000037  00000+0  67017-4 0  9991
2 48067  87.8956 320.4238 0001366  95.7718 264.3567 13.13470650253413
ONEWEB-0168             
1 48068U 21025AC  26167.15154292 -.00000363  00000+0 -10289-2 0  9992
2 48068  87.8962 320.4267 0001978 100.8834 259.2518 13.13469604253426
ONEWEB-0173             
1 48069U 21025AD  26167.14307919 -.00000334  00000+0 -94827-3 0  9997
2 48069  87.8954 320.4298 0001931 108.0581 252.0758 13.13470055253665
ONEWEB-0171             
1 48070U 21025AE  26167.18032830  .00000195  00000+0  49926-3 0  9993
2 48070  87.8952 320.4307 0001739  98.1885 261.9442 13.13469756253483
ONEWEB-0172             
1 48071U 21025AF  26167.16000064 -.00000118  00000+0 -35696-3 0  9992
2 48071  87.8958 320.4246 0001793 102.4935 257.6394 13.13471564254374
ONEWEB-0174             
1 48072U 21025AG  26167.14139227 -.00000325  00000+0 -92360-3 0  9996
2 48072  87.8956 320.4274 0001996  96.7285 263.4071 13.13470731253698
ONEWEB-0175             
1 48073U 21025AH  26167.17186433  .00000182  00000+0  46319-3 0  9993
2 48073  87.8963 320.4058 0001512 102.6064 257.5234 13.13471069253356
ONEWEB-0177             
1 48074U 21025AJ  26167.18371017  .00000244  00000+0  63245-3 0  9995
2 48074  87.8959 320.4219 0002036 100.3121 259.8237 13.13470240253541
ONEWEB-0178             
1 48075U 21025AK  26167.12628409 -.00000043  00000+0 -15295-3 0  9991
2 48075  87.8945 320.4460 0001717 104.7707 255.3612 13.13468122253586
ONEWEB-0108             
1 48076U 21025AL  26167.16170297 -.00000138  00000+0 -41348-3 0  9996
2 48076  87.8962 320.4177 0001914  90.2568 269.8781 13.13470266253516
ONEWEB-0169             
1 48077U 21025AM  26167.11769115  .00000208  00000+0  53590-3 0  9993
2 48077  87.8956 320.4344 0001943  96.2534 263.8817 13.13469596252165
ONEWEB-0176             
1 48210U 21031A   26167.03722603  .00000083  00000+0  18865-3 0  9998
2 48210  87.8965 289.9284 0001878 103.5281 256.6058 13.14503277248162
ONEWEB-0184             
1 48211U 21031B   26166.85802886  .00000118  00000+0  28400-3 0  9995
2 48211  87.8970 289.9648 0001496 124.8515 235.2756 13.14502837248119
ONEWEB-0179             
1 48212U 21031C   26167.04201308  .00000194  00000+0  58606-4 0  9996
2 48212  87.8989 287.2480 0218698 260.9784  96.6602 14.25522201248882
ONEWEB-0180             
1 48213U 21031D   26167.08955661  .00000232  00000+0  59113-3 0  9995
2 48213  87.8965 289.9150 0002166 111.6930 248.4431 13.14503176248071
ONEWEB-0218             
1 48214U 21031E   26167.03564088  .00000047  00000+0  92899-4 0  9993
2 48214  87.8974 289.9247 0001801 128.2251 231.9041 13.14502144248229
ONEWEB-0209             
1 48215U 21031F   26167.10064719  .00000356  00000+0  92450-3 0  9993
2 48215  87.8963 289.9290 0002104 104.1803 255.9560 13.14502057248235
ONEWEB-0198             
1 48216U 21031G   26167.08494007  .00000101  00000+0  23674-3 0  9998
2 48216  87.8954 289.9314 0002050 113.2843 246.8503 13.14502637248340
ONEWEB-0189             
1 48217U 21031H   26167.09748755  .00000267  00000+0  68481-3 0  9990
2 48217  87.8968 289.9149 0001990 111.0283 249.1060 13.14503125248086
